{"type": "FeatureCollection", "features": [ {"type": "Feature", "properties": {"norad_id": 31915, "name": "FENGYUN 1C DEB", "group": "fengyun-1c-debris", "lat": -17.02472801490585, "lon": -1.0131016265137878, "alt_km": 794.3655547740818, "timestamp": "2025-12-04T05:42:43.657947+00:00", "meta": {"OBJECT_NAME": "FENGYUN 1C DEB", "OBJECT_ID": "1999-025CLS", "EPOCH": "2025-12-03T19:37:06.159360", "MEAN_MOTION": 14.16161008, "ECCENTRICITY": 0.01009797, "INCLINATION": 98.6318, "RA_OF_ASC_NODE": 355.9133, "ARG_OF_PERICENTER": 295.7312, "MEAN_ANOMALY": 63.3466, "EPHEMERIS_TYPE": 0, "CLASSIFICATION_TYPE": "U", "NORAD_CAT_ID": 31915, "ELEMENT_SET_NO": 999, "REV_AT_EPOCH": 63981, "BSTAR": 0.0017073156, "MEAN_MOTION_DOT": 3.507e-05, "MEAN_MOTION_DDOT": 0}, "tle": {"line1": "1 31915U 99025CLS 25337.81743240  .00003507  00000+0  17073-2 0  9997", "line2": "2 31915  98.6318 355.9133 0100979 295.7312  63.3466 14.16161008639813"}}, "geometry": {"type": "Point", "coordinates": [-1.0131016265137878, -17.02472801490585]}}, {"type": "Feature", "properties": {"norad_id": 31916, "name": "FENGYUN 1C DEB", "group": "fengyun-1c-debris", "lat": 42.65814461059443, "lon": 54.066473234378144, "alt_km": 755.973059825229, "timestamp": "2025-12-04T05:42:43.657957+00:00", "meta": {"OBJECT_NAME": "FENGYUN 1C DEB", "OBJECT_ID": "1999-025CLT", "EPOCH": "2025-12-02T23:19:56.831520", "MEAN_MOTION": 14.32359509, "ECCENTRICITY": 0.01476369, "INCLINATION": 99.3314, "RA_OF_ASC_NODE": 61.419, "ARG_OF_PERICENTER": 124.663, "MEAN_ANOMALY": 236.8568, "EPHEMERIS_TYPE": 0, "CLASSIFICATION_TYPE": "U", "NORAD_CAT_ID": 31916, "ELEMENT_SET_NO": 999, "REV_AT_EPOCH": 64387, "BSTAR": 0.0021995527, "MEAN_MOTION_DOT": 6.66e-05, "MEAN_MOTION_DDOT": 0}, "tle": {"line1": "1 31916U 99025CLT 25336.97218555  .00006660  00000+0  21996-2 0  9992", "line2": "2 31916  99.3314  61.4190 0147636 124.6630 236.8568 14.32359509643878"}}, "geometry": {"type": "Point", "coordinates": [54.066473234378144, 42.65814461059443]}}, {"type": "Feature", "properties": {"norad_id": 31917, "name": "FENGYUN 1C DEB", "group": "fengyun-1c-debris", "lat": -4.121013781514001, "lon": 150.6382586112923, "alt_km": 864.6298817807856, "timestamp": "2025-12-04T05:42:43.657967+00:00", "meta": {"OBJECT_NAME": "FENGYUN 1C DEB", "OBJECT_ID": "1999-025CLU", "EPOCH": "2025-12-02T06:07:47.080128", "MEAN_MOTION": 14.37534307, "ECCENTRICITY": 0.01898264, "INCLINATION": 98.3598, "RA_OF_ASC_NODE": 329.3164, "ARG_OF_PERICENTER": 324.9516, "MEAN_ANOMALY": 46.343, "EPHEMERIS_TYPE": 0, "CLASSIFICATION_TYPE": "U", "NORAD_CAT_ID": 31917, "ELEMENT_SET_NO": 999, "REV_AT_EPOCH": 96271, "BSTAR": 0.00097434798, "MEAN_MOTION_DOT": 3.546e-05, "MEAN_MOTION_DDOT": 0}, "tle": {"line1": "1 31917U 99025CLU 25336.25540602  .00003546  00000+0  97435-3 0  9997", "line2": "2 31917  98.3598 329.3164 0189826 324.9516  46.3430 14.37534307962719"}}, "geometry": {"type": "Point", "coordinates": [150.6382586112923, -4.121013781514001]}}, {"type": "Feature", "properties": {"norad_id": 31919, "name": "FENGYUN 1C DEB", "group": "fengyun-1c-debris", "lat": 54.8030528599387, "lon": -46.833892584855754, "alt_km": 756.0965138338597, "timestamp": "2025-12-04T05:42:43.657977+00:00", "meta": {"OBJECT_NAME": "FENGYUN 1C DEB", "OBJECT_ID": "1999-025CLW", "EPOCH": "2025-12-02T15:13:05.255040", "MEAN_MOTION": 14.4568608, "ECCENTRICITY": 0.01019365, "INCLINATION": 99.1004, "RA_OF_ASC_NODE": 118.3119, "ARG_OF_PERICENTER": 236.7117, "MEAN_ANOMALY": 185.6873, "EPHEMERIS_TYPE": 0, "CLASSIFICATION_TYPE": "U", "NORAD_CAT_ID": 31919, "ELEMENT_SET_NO": 999, "REV_AT_EPOCH": 96935, "BSTAR": 0.00074875334, "MEAN_MOTION_DOT": 2.771e-05, "MEAN_MOTION_DDOT": 0}, "tle": {"line1": "1 31919U 99025CLW 25336.63408860  .00002771  00000+0  74875-3 0  9992", "line2": "2 31919  99.1004 118.3119 0101936 236.7117 185.6873 14.45686080969351"}}, "geometry": {"type": "Point", "coordinates": [-46.833892584855754, 54.8030528599387]}}, {"type": "Feature", "properties": {"norad_id": 31921, "name": "FENGYUN 1C DEB", "group": "fengyun-1c-debris", "lat": 23.058675967728075, "lon": 54.79895302706129, "alt_km": 1076.657400678857, "timestamp": "2025-12-04T05:42:43.657987+00:00", "meta": {"OBJECT_NAME": "FENGYUN 1C DEB", "OBJECT_ID": "1999-025CLY", "EPOCH": "2025-11-28T10:59:40.701408", "MEAN_MOTION": 13.75221873, "ECCENTRICITY": 0.02030283, "INCLINATION": 99.3395, "RA_OF_ASC_NODE": 225.1205, "ARG_OF_PERICENTER": 302.7278, "MEAN_ANOMALY": 55.4443, "EPHEMERIS_TYPE": 0, "CLASSIFICATION_TYPE": "U", "NORAD_CAT_ID": 31921, "ELEMENT_SET_NO": 999, "REV_AT_EPOCH": 92110, "BSTAR": 0.0013372517, "MEAN_MOTION_DOT": 1.443e-05, "MEAN_MOTION_DDOT": 0}, "tle": {"line1": "1 31921U 99025CLY 25332.45810997  .00001443  00000+0  13373-2 0  9999", "line2": "2 31921  99.3395 225.1205 0203028 302.7278  55.4443 13.75221873921104"}}, "geometry": {"type": "Point", "coordinates": [54.79895302706129, 23.058675967728075]}}, {"type": "Feature", "properties": {"norad_id": 31922, "name": "FENGYUN 1C DEB", "group": "fengyun-1c-debris", "lat": 45.39329676144446, "lon": -38.87867344485054, "alt_km": 818.7195321940026, "timestamp": "2025-12-04T05:42:43.657998+00:00", "meta": {"OBJECT_NAME": "FENGYUN 1C DEB", "OBJECT_ID": "1999-025CLZ", "EPOCH": "2025-12-03T22:49:25.648320", "MEAN_MOTION": 13.86552349, "ECCENTRICITY": 0.01615016, "INCLINATION": 98.8048, "RA_OF_ASC_NODE": 329.8916, "ARG_OF_PERICENTER": 50.2704, "MEAN_ANOMALY": 4.1257, "EPHEMERIS_TYPE": 0, "CLASSIFICATION_TYPE": "U", "NORAD_CAT_ID": 31922, "ELEMENT_SET_NO": 999, "REV_AT_EPOCH": 92895, "BSTAR": 0.0021119276, "MEAN_MOTION_DOT": 2.679e-05, "MEAN_MOTION_DDOT": 0}, "tle": {"line1": "1 31922U 99025CLZ 25337.95099130  .00002679  00000+0  21119-2 0  9997", "line2": "2 31922  98.8048 329.8916 0161501  50.2704   4.1257 13.86552349928954"}}, "geometry": {"type": "Point", "coordinates": [-38.87867344485054, 45.39329676144446]}}, {"type": "Feature", "properties": {"norad_id": 31923, "name": "FENGYUN 1C DEB", "group": "fengyun-1c-debris", "lat": 54.19719007355095, "lon": -94.91930430764818, "alt_km": 1255.606892333597, "timestamp": "2025-12-04T05:42:43.658008+00:00", "meta": {"OBJECT_NAME": "FENGYUN 1C DEB", "OBJECT_ID": "1999-025CMA", "EPOCH": "2025-11-27T04:43:30.487296", "MEAN_MOTION": 13.54838652, "ECCENTRICITY": 0.0299441, "INCLINATION": 98.4405, "RA_OF_ASC_NODE": 67.1712, "ARG_OF_PERICENTER": 344.5928, "MEAN_ANOMALY": 14.6245, "EPHEMERIS_TYPE": 0, "CLASSIFICATION_TYPE": "U", "NORAD_CAT_ID": 31923, "ELEMENT_SET_NO": 999, "REV_AT_EPOCH": 63424, "BSTAR": 0.0012454, "MEAN_MOTION_DOT": 1.103e-05, "MEAN_MOTION_DDOT": 0}, "tle": {"line1": "1 31923U 99025CMA 25331.19688064  .00001103  00000+0  12454-2 0  9991", "line2": "2 31923  98.4405  67.1712 0299441 344.5928  14.6245 13.54838652634244"}}, "geometry": {"type": "Point", "coordinates": [-94.91930430764818, 54.19719007355095]}}, {"type": "Feature", "properties": {"norad_id": 31924, "name": "FENGYUN 1C DEB", "group": "fengyun-1c-debris", "lat": 63.06446833215146, "lon": -26.360037904272534, "alt_km": 813.3468731677685, "timestamp": "2025-12-04T05:42:43.658018+00:00", "meta": {"OBJECT_NAME": "FENGYUN 1C DEB", "OBJECT_ID": "1999-025CMB", "EPOCH": "2025-12-02T16:11:07.216512", "MEAN_MOTION": 13.63863085, "ECCENTRICITY": 0.02736997, "INCLINATION": 98.4029, "RA_OF_ASC_NODE": 135.3746, "ARG_OF_PERICENTER": 123.6218, "MEAN_ANOMALY": 239.1368, "EPHEMERIS_TYPE": 0, "CLASSIFICATION_TYPE": "U", "NORAD_CAT_ID": 31924, "ELEMENT_SET_NO": 999, "REV_AT_EPOCH": 91330, "BSTAR": 0.001814892, "MEAN_MOTION_DOT": 1.824e-05, "MEAN_MOTION_DDOT": 0}, "tle": {"line1": "1 31924U 99025CMB 25336.67438908  .00001824  00000+0  18149-2 0  9997", "line2": "2 31924  98.4029 135.3746 0273699 123.6218 239.1368 13.63863085913302"}}, "geometry": {"type": "Point", "coordinates": [-26.360037904272534, 63.06446833215146]}}, {"type": "Feature", "properties": {"norad_id": 31926, "name": "FENGYUN 1C DEB", "group": "fengyun-1c-debris", "lat": -53.6105378399551, "lon": 85.5779542561422, "alt_km": 772.8182204348896, "timestamp": "2025-12-04T05:42:43.658028+00:00", "meta": {"OBJECT_NAME": "FENGYUN 1C DEB", "OBJECT_ID": "1999-025CMD", "EPOCH": "2025-12-02T05:17:05.814816", "MEAN_MOTION": 14.30511949, "ECCENTRICITY": 0.0037969, "INCLINATION": 98.9584, "RA_OF_ASC_NODE": 71.1415, "ARG_OF_PERICENTER": 283.3692, "MEAN_ANOMALY": 76.3258, "EPHEMERIS_TYPE": 0, "CLASSIFICATION_TYPE": "U", "NORAD_CAT_ID": 31926, "ELEMENT_SET_NO": 999, "REV_AT_EPOCH": 95077, "BSTAR": 0.002944, "MEAN_MOTION_DOT": 7.692e-05, "MEAN_MOTION_DDOT": 0}, "tle": {"line1": "1 31926U 99025CMD 25336.22020619  .00007692  00000+0  29440-2 0  9991", "line2": "2 31926  98.9584  71.1415 0037969 283.3692  76.3258 14.30511949950778"}}, "geometry": {"type": "Point", "coordinates": [85.5779542561422, -53.6105378399551]}}, {"type": "Feature", "properties": {"norad_id": 31929, "name": "FENGYUN 1C DEB", "group": "fengyun-1c-debris", "lat": -81.15167597382528, "lon": -168.8335802723592, "alt_km": 835.1204450120358, "timestamp": "2025-12-04T05:42:43.658038+00:00", "meta": {"OBJECT_NAME": "FENGYUN 1C DEB", "OBJECT_ID": "1999-025CME", "EPOCH": "2025-11-30T15:06:17.273376", "MEAN_MOTION": 14.34883129, "ECCENTRICITY": 0.0074571, "INCLINATION": 98.7907, "RA_OF_ASC_NODE": 103.7601, "ARG_OF_PERICENTER": 90.6854, "MEAN_ANOMALY": 270.2876, "EPHEMERIS_TYPE": 0, "CLASSIFICATION_TYPE": "U", "NORAD_CAT_ID": 31929, "ELEMENT_SET_NO": 999, "REV_AT_EPOCH": 70472, "BSTAR": 0.00051275, "MEAN_MOTION_DOT": 1.458e-05, "MEAN_MOTION_DDOT": 0}, "tle": {"line1": "1 31929U 99025CME 25334.62936659  .00001458  00000+0  51275-3 0  9992", "line2": "2 31929  98.7907 103.7601 0074571  90.6854 270.2876 14.34883129704725"}}, "geometry": {"type": "Point", "coordinates": [-168.8335802723592, -81.15167597382528]}}]}